[
  {
    "OBJECT_NAME": "STARLINK-30607",
    "OBJECT_ID": "2023-161C",
    "EPOCH": "2025-05-04T02:35:28.199328",
    "MEAN_MOTION": 15.3014066,
    "ECCENTRICITY": 0.0001418,
    "INCLINATION": 53.1593,
    "RA_OF_ASC_NODE": 153.485,
    "ARG_OF_PERICENTER": 69.0669,
    "MEAN_ANOMALY": 291.0483,
    "EPHEMERIS_TYPE": 0,
    "CLASSIFICATION_TYPE": "U",
    "NORAD_CAT_ID": 58099,
    "ELEMENT_SET_NO": 999,
    "REV_AT_EPOCH": 8676,
    "BSTAR": 0.00036456,
    "MEAN_MOTION_DOT": 0.00010434,
    "MEAN_MOTION_DDOT": 0
  },
  {
    "OBJECT_NAME": "STARLINK-30600",
    "OBJECT_ID": "2023-161D",
    "EPOCH": "2025-05-03T12:37:59.111040",
    "MEAN_MOTION": 15.30186425,
    "ECCENTRICITY": 0.0001217,
    "INCLINATION": 53.1595,
    "RA_OF_ASC_NODE": 166.2436,
    "ARG_OF_PERICENTER": 83.5071,
    "MEAN_ANOMALY": 276.6068,
    "EPHEMERIS_TYPE": 0,
    "CLASSIFICATION_TYPE": "U",
    "NORAD_CAT_ID": 58100,
    "ELEMENT_SET_NO": 999,
    "REV_AT_EPOCH": 8693,
    "BSTAR": 1.9937e-05,
    "MEAN_MOTION_DOT": 2.31e-06,
    "MEAN_MOTION_DDOT": 0
  },
  {
    "OBJECT_NAME": "STARLINK-30605",
    "OBJECT_ID": "2023-161E",
    "EPOCH": "2025-05-03T20:08:30.047424",
    "MEAN_MOTION": 15.30177694,
    "ECCENTRICITY": 0.0001488,
    "INCLINATION": 53.1591,
    "RA_OF_ASC_NODE": 164.6501,
    "ARG_OF_PERICENTER": 79.5641,
    "MEAN_ANOMALY": 280.5527,
    "EPHEMERIS_TYPE": 0,
    "CLASSIFICATION_TYPE": "U",
    "NORAD_CAT_ID": 58101,
    "ELEMENT_SET_NO": 999,
    "REV_AT_EPOCH": 8698,
    "BSTAR": 0.00011264,
    "MEAN_MOTION_DOT": 2.976e-05,
    "MEAN_MOTION_DDOT": 0
  },
  {
    "OBJECT_NAME": "STARLINK-30592",
    "OBJECT_ID": "2023-161F",
    "EPOCH": "2025-05-03T20:03:56.600064",
    "MEAN_MOTION": 15.30186094,
    "ECCENTRICITY": 0.0001544,
    "INCLINATION": 53.1595,
    "RA_OF_ASC_NODE": 164.629,
    "ARG_OF_PERICENTER": 91.6715,
    "MEAN_ANOMALY": 268.4463,
    "EPHEMERIS_TYPE": 0,
    "CLASSIFICATION_TYPE": "U",
    "NORAD_CAT_ID": 58102,
    "ELEMENT_SET_NO": 999,
    "REV_AT_EPOCH": 8698,
    "BSTAR": 1.0839e-05,
    "MEAN_MOTION_DOT": -3.8e-07,
    "MEAN_MOTION_DDOT": 0
  },
  {
    "OBJECT_NAME": "STARLINK-30589",
    "OBJECT_ID": "2023-161G",
    "EPOCH": "2025-05-04T03:17:51.249408",
    "MEAN_MOTION": 15.30187518,
    "ECCENTRICITY": 0.000102,
    "INCLINATION": 53.1592,
    "RA_OF_ASC_NODE": 163.4654,
    "ARG_OF_PERICENTER": 77.4343,
    "MEAN_ANOMALY": 282.6772,
    "EPHEMERIS_TYPE": 0,
    "CLASSIFICATION_TYPE": "U",
    "NORAD_CAT_ID": 58103,
    "ELEMENT_SET_NO": 999,
    "REV_AT_EPOCH": 8689,
    "BSTAR": 2.0139e-06,
    "MEAN_MOTION_DOT": -2.99e-06,
    "MEAN_MOTION_DDOT": 0
  },
  {
    "OBJECT_NAME": "STARLINK-30617",
    "OBJECT_ID": "2023-161H",
    "EPOCH": "2025-05-04T03:22:24.605184",
    "MEAN_MOTION": 15.30205981,
    "ECCENTRICITY": 0.0001208,
    "INCLINATION": 53.1588,
    "RA_OF_ASC_NODE": 163.4875,
    "ARG_OF_PERICENTER": 112.0857,
    "MEAN_ANOMALY": 248.0272,
    "EPHEMERIS_TYPE": 0,
    "CLASSIFICATION_TYPE": "U",
    "NORAD_CAT_ID": 58104,
    "ELEMENT_SET_NO": 999,
    "REV_AT_EPOCH": 8689,
    "BSTAR": -0.0001205,
    "MEAN_MOTION_DOT": -3.927e-05,
    "MEAN_MOTION_DDOT": 0
  },
  {
    "OBJECT_NAME": "STARLINK-30616",
    "OBJECT_ID": "2023-161J",
    "EPOCH": "2025-05-03T19:41:00.136608",
    "MEAN_MOTION": 15.39611576,
    "ECCENTRICITY": 0.0001405,
    "INCLINATION": 53.1596,
    "RA_OF_ASC_NODE": 154.4272,
    "ARG_OF_PERICENTER": 77.7277,
    "MEAN_ANOMALY": 282.3885,
    "EPHEMERIS_TYPE": 0,
    "CLASSIFICATION_TYPE": "U",
    "NORAD_CAT_ID": 58105,
    "ELEMENT_SET_NO": 999,
    "REV_AT_EPOCH": 8711,
    "BSTAR": 0.00010045,
    "MEAN_MOTION_DOT": 3.619e-05,
    "MEAN_MOTION_DDOT": 0
  },
  {
    "OBJECT_NAME": "STARLINK-30612",
    "OBJECT_ID": "2023-161K",
    "EPOCH": "2025-05-03T12:00:17.763840",
    "MEAN_MOTION": 15.3962871,
    "ECCENTRICITY": 0.0001562,
    "INCLINATION": 53.1601,
    "RA_OF_ASC_NODE": 155.9947,
    "ARG_OF_PERICENTER": 43.5891,
    "MEAN_ANOMALY": 316.5237,
    "EPHEMERIS_TYPE": 0,
    "CLASSIFICATION_TYPE": "U",
    "NORAD_CAT_ID": 58106,
    "ELEMENT_SET_NO": 999,
    "REV_AT_EPOCH": 8707,
    "BSTAR": -1.4077e-05,
    "MEAN_MOTION_DOT": -9.63e-06,
    "MEAN_MOTION_DDOT": 0
  },
  {
    "OBJECT_NAME": "STARLINK-30421",
    "OBJECT_ID": "2023-161L",
    "EPOCH": "2025-05-03T19:34:18.363648",
    "MEAN_MOTION": 15.39609218,
    "ECCENTRICITY": 0.000102,
    "INCLINATION": 53.1602,
    "RA_OF_ASC_NODE": 154.3743,
    "ARG_OF_PERICENTER": 84.9881,
    "MEAN_ANOMALY": 275.124,
    "EPHEMERIS_TYPE": 0,
    "CLASSIFICATION_TYPE": "U",
    "NORAD_CAT_ID": 58107,
    "ELEMENT_SET_NO": 999,
    "REV_AT_EPOCH": 8712,
    "BSTAR": 7.1905e-06,
    "MEAN_MOTION_DOT": -1.12e-06,
    "MEAN_MOTION_DDOT": 0
  },
  {
    "OBJECT_NAME": "STARLINK-30611",
    "OBJECT_ID": "2023-161M",
    "EPOCH": "2025-05-03T08:53:48.494688",
    "MEAN_MOTION": 15.39616114,
    "ECCENTRICITY": 0.0001169,
    "INCLINATION": 53.1588,
    "RA_OF_ASC_NODE": 156.5545,
    "ARG_OF_PERICENTER": 91.9181,
    "MEAN_ANOMALY": 268.1958,
    "EPHEMERIS_TYPE": 0,
    "CLASSIFICATION_TYPE": "U",
    "NORAD_CAT_ID": 58108,
    "ELEMENT_SET_NO": 999,
    "REV_AT_EPOCH": 8705,
    "BSTAR": -5.5738e-05,
    "MEAN_MOTION_DOT": -2.628e-05,
    "MEAN_MOTION_DDOT": 0
  },
  {
    "OBJECT_NAME": "STARLINK-30606",
    "OBJECT_ID": "2023-161N",
    "EPOCH": "2025-05-03T12:33:25.410528",
    "MEAN_MOTION": 15.30189011,
    "ECCENTRICITY": 0.0001315,
    "INCLINATION": 53.1602,
    "RA_OF_ASC_NODE": 166.2325,
    "ARG_OF_PERICENTER": 74.4422,
    "MEAN_ANOMALY": 285.6724,
    "EPHEMERIS_TYPE": 0,
    "CLASSIFICATION_TYPE": "U",
    "NORAD_CAT_ID": 58109,
    "ELEMENT_SET_NO": 999,
    "REV_AT_EPOCH": 8693,
    "BSTAR": 3.5827e-05,
    "MEAN_MOTION_DOT": 7.02e-06,
    "MEAN_MOTION_DDOT": 0
  },
  {
    "OBJECT_NAME": "STARLINK-30596",
    "OBJECT_ID": "2023-161P",
    "EPOCH": "2025-05-03T19:50:16.135296",
    "MEAN_MOTION": 15.30176645,
    "ECCENTRICITY": 0.0001304,
    "INCLINATION": 53.1593,
    "RA_OF_ASC_NODE": 164.5674,
    "ARG_OF_PERICENTER": 104.4142,
    "MEAN_ANOMALY": 255.7003,
    "EPHEMERIS_TYPE": 0,
    "CLASSIFICATION_TYPE": "U",
    "NORAD_CAT_ID": 58110,
    "ELEMENT_SET_NO": 999,
    "REV_AT_EPOCH": 8698,
    "BSTAR": 8.2763e-05,
    "MEAN_MOTION_DOT": 2.091e-05,
    "MEAN_MOTION_DDOT": 0
  },
  {
    "OBJECT_NAME": "STARLINK-30595",
    "OBJECT_ID": "2023-161Q",
    "EPOCH": "2025-05-03T09:43:33.000384",
    "MEAN_MOTION": 15.30195027,
    "ECCENTRICITY": 0.0001143,
    "INCLINATION": 53.1593,
    "RA_OF_ASC_NODE": 166.9182,
    "ARG_OF_PERICENTER": 78.2192,
    "MEAN_ANOMALY": 281.8937,
    "EPHEMERIS_TYPE": 0,
    "CLASSIFICATION_TYPE": "U",
    "NORAD_CAT_ID": 58111,
    "ELEMENT_SET_NO": 999,
    "REV_AT_EPOCH": 8691,
    "BSTAR": 1.3186e-05,
    "MEAN_MOTION_DOT": 3.1e-07,
    "MEAN_MOTION_DDOT": 0
  },
  {
    "OBJECT_NAME": "STARLINK-30593",
    "OBJECT_ID": "2023-161R",
    "EPOCH": "2025-05-03T12:47:06.783360",
    "MEAN_MOTION": 15.30191951,
    "ECCENTRICITY": 0.0001246,
    "INCLINATION": 53.1598,
    "RA_OF_ASC_NODE": 166.2901,
    "ARG_OF_PERICENTER": 80.2173,
    "MEAN_ANOMALY": 279.8969,
    "EPHEMERIS_TYPE": 0,
    "CLASSIFICATION_TYPE": "U",
    "NORAD_CAT_ID": 58112,
    "ELEMENT_SET_NO": 999,
    "REV_AT_EPOCH": 8693,
    "BSTAR": 6.3877e-05,
    "MEAN_MOTION_DOT": 1.533e-05,
    "MEAN_MOTION_DDOT": 0
  }
]