STARLINK-30607          
1 58099U 23161C   25124.10796527  .00010434  00000+0  36456-3 0  9993
2 58099  53.1593 153.4850 0001418  69.0669 291.0483 15.30140660 86765
STARLINK-30600          
1 58100U 23161D   25123.52637860  .00000231  00000+0  19937-4 0  9995
2 58100  53.1595 166.2436 0001217  83.5071 276.6068 15.30186425 86933
STARLINK-30605          
1 58101U 23161E   25123.83923666  .00002976  00000+0  11264-3 0  9994
2 58101  53.1591 164.6501 0001488  79.5641 280.5527 15.30177694 86980
STARLINK-30592          
1 58102U 23161F   25123.83607176 -.00000038  00000+0  10839-4 0  9996
2 58102  53.1595 164.6290 0001544  91.6715 268.4463 15.30186094 86988
STARLINK-30589          
1 58103U 23161G   25124.13739872 -.00000299  00000+0  20139-5 0  9994
2 58103  53.1592 163.4654 0001020  77.4343 282.6772 15.30187518 86898
STARLINK-30617          
1 58104U 23161H   25124.14056256 -.00003927  00000+0 -12050-3 0  9997
2 58104  53.1588 163.4875 0001208 112.0857 248.0272 15.30205981 86899
STARLINK-30616          
1 58105U 23161J   25123.82014047  .00003619  00000+0  10045-3 0  9992
2 58105  53.1596 154.4272 0001405  77.7277 282.3885 15.39611576 87119
STARLINK-30612          
1 58106U 23161K   25123.50020560 -.00000963  00000+0 -14077-4 0  9996
2 58106  53.1601 155.9947 0001562  43.5891 316.5237 15.39628710 87073
STARLINK-30421          
1 58107U 23161L   25123.81549032 -.00000112  00000+0  71905-5 0  9990
2 58107  53.1602 154.3743 0001020  84.9881 275.1240 15.39609218 87121
STARLINK-30611          
1 58108U 23161M   25123.37070017 -.00002628  00000+0 -55738-4 0  9994
2 58108  53.1588 156.5545 0001169  91.9181 268.1958 15.39616114 87057
STARLINK-30606          
1 58109U 23161N   25123.52321077  .00000702  00000+0  35827-4 0  9993
2 58109  53.1602 166.2325 0001315  74.4422 285.6724 15.30189011 86939
STARLINK-30596          
1 58110U 23161P   25123.82657564  .00002091  00000+0  82763-4 0  9995
2 58110  53.1593 164.5674 0001304 104.4142 255.7003 15.30176645 86981
STARLINK-30595          
1 58111U 23161Q   25123.40524306  .00000031  00000+0  13186-4 0  9992
2 58111  53.1593 166.9182 0001143  78.2192 281.8937 15.30195027 86910
STARLINK-30593          
1 58112U 23161R   25123.53271740  .00001533  00000+0  63877-4 0  9998
2 58112  53.1598 166.2901 0001246  80.2173 279.8969 15.30191951 86930
